OBJECT_NAME,OBJECT_ID,EPOCH,MEAN_MOTION,ECCENTRICITY,INCLINATION,RA_OF_ASC_NODE,ARG_OF_PERICENTER,MEAN_ANOMALY,EPHEMERIS_TYPE,CLASSIFICATION_TYPE,NORAD_CAT_ID,ELEMENT_SET_NO,REV_AT_EPOCH,BSTAR,MEAN_MOTION_DOT,MEAN_MOTION_DDOT
STARLINK-37592,2026-101A,2026-06-05T16:00:01.998720,15.36656998,.0001368,97.2854,11.6257,58.7623,290.6876,0,U,69025,999,610,-.70184E-1,-.2246314E-1,0
STARLINK-37637,2026-101B,2026-06-05T11:43:38.953056,15.49211776,.0002041,97.2839,11.4090,81.9360,278.2123,0,U,69026,999,477,.81169E-3,.44341E-3,0
STARLINK-37548,2026-101C,2026-06-05T16:00:01.998720,15.44232233,.0001366,97.2852,11.6475,97.6065,307.2573,0,U,69027,999,607,-.59732E-1,-.2434993E-1,0
STARLINK-37634,2026-101D,2026-06-05T01:13:56.315136,15.49234683,.0001683,97.2847,11.0879,110.9437,249.1994,0,U,69028,999,471,.13047E-2,.71633E-3,0
STARLINK-37635,2026-101E,2026-06-05T16:00:01.998720,15.33435796,.0001968,97.2850,11.6430,94.5717,303.8421,0,U,69029,999,607,-.54545E-3,-.17639E-3,0
STARLINK-37615,2026-101F,2026-06-05T16:00:01.998720,15.40297919,.0001657,97.2840,11.6781,76.2764,32.0177,0,U,69030,999,610,-.51477E-1,-.1861717E-1,0
STARLINK-37240,2026-101G,2026-06-05T01:59:21.919776,15.49242369,.0001816,97.2853,11.0429,75.5460,284.5992,0,U,69031,999,471,.99587E-3,.54551E-3,0
STARLINK-37596,2026-101H,2026-06-05T02:49:03.245952,15.49232306,.0001719,97.2832,10.9980,62.7837,297.3589,0,U,69032,999,471,.10680333E-2,.58519E-3,0
STARLINK-37591,2026-101J,2026-06-05T08:14:06.819072,15.49202569,.0001725,97.2831,11.3038,70.0478,290.0959,0,U,69033,999,475,.92798E-3,.5073E-3,0
STARLINK-37611,2026-101K,2026-06-05T16:00:01.998720,15.40725445,.0001609,97.2855,11.6442,92.2360,303.9637,0,U,69034,999,610,-.68482E-1,-.2475664E-1,0
STARLINK-37512,2026-101L,2026-06-05T01:01:03.877536,15.49212887,.0001129,97.2865,10.9436,55.4443,304.6915,0,U,69035,999,470,.95882018E-3,.52449E-3,0
STARLINK-37609,2026-101M,2026-06-05T01:11:24.431712,15.49233806,.000101,97.2846,10.9367,118.2570,241.8783,0,U,69036,999,470,.13563E-2,.7449E-3,0
STARLINK-37608,2026-101N,2026-06-05T08:15:00.913248,15.49200548,.0001574,97.2813,11.3016,81.2005,278.9425,0,U,69037,999,475,.919E-3,.50232E-3,0
STARLINK-37466,2026-101P,2026-06-05T07:28:55.366752,15.49197211,.0001747,97.2851,11.1914,109.1165,251.0275,0,U,69038,999,474,.91679E-3,.50105E-3,0
STARLINK-37612,2026-101Q,2026-06-05T16:00:01.998720,15.38828093,.0001665,97.2849,11.6397,97.6392,276.0507,0,U,69039,999,610,-.69232E-1,-.2364222E-1,0
STARLINK-37616,2026-101R,2026-06-05T16:00:01.998720,15.33430400,.0002048,97.2849,11.6296,70.0686,298.2400,0,U,69040,999,610,-.67146E-3,-.21682E-3,0
STARLINK-37614,2026-101S,2026-06-05T08:12:06.674688,15.49187562,.0002582,97.2820,11.3010,13.6364,346.4957,0,U,69041,999,475,.10414E-2,.56959E-3,0
STARLINK-37644,2026-101T,2026-06-05T08:09:35.144640,15.49196853,.0000914,97.2842,11.3030,108.0868,252.0483,0,U,69042,999,475,.74221E-3,.40495E-3,0
STARLINK-37571,2026-101U,2026-06-05T08:06:44.639424,15.49202433,.0000966,97.2824,11.3073,90.2210,269.9152,0,U,69043,999,475,.81253E-3,.44371E-3,0
STARLINK-37664,2026-101V,2026-06-05T01:14:26.958624,15.49235079,.0005693,97.2827,10.9324,47.7108,312.4625,0,U,69044,999,470,.72509E-3,.3963E-3,0
STARLINK-37667,2026-101W,2026-06-05T16:00:01.998720,15.37581649,.0003221,97.2845,11.7141,103.8812,96.8252,0,U,69045,999,610,-.15722E+0,-.4968017E-1,0
STARLINK-37666,2026-101X,2026-06-05T16:00:01.998720,15.40814350,.0002095,97.2849,11.7482,91.7967,183.6126,0,U,69046,999,610,-.66289E-1,-.2411848E-1,0
STARLINK-37576,2026-101Y,2026-06-05T16:00:01.998720,15.41820371,.0001978,97.2844,11.7600,95.7078,204.7285,0,U,69047,999,607,-.65371E-1,-.2454259E-1,0
STARLINK-37663,2026-101Z,2026-06-05T01:48:34.180704,15.49180025,.0001424,97.2866,11.0545,41.9690,318.1670,0,U,69048,999,471,.1112E-2,.60837E-3,0
TIANZHOU-10,2026-102A,2026-06-05T01:46:04.270656,15.60275999,.00095692,41.4694,35.6942,344.8796,15.1755,0,U,69049,999,393,.31557792E-3,.26328E-3,0
QIANFAN-127,2026-104A,2026-06-05T17:22:53.738112,14.21690786,.0005327,88.9863,342.9134,137.6996,222.4606,0,U,69073,999,346,.45249E-4,.114E-5,0
QIANFAN-128,2026-104B,2026-06-05T17:01:10.320672,14.18045842,.0004609,88.9864,342.9302,135.2599,224.8962,0,U,69074,999,345,.47494E-4,.112E-5,0
QIANFAN-129,2026-104C,2026-06-05T16:23:42.715392,14.25500361,.0004953,88.9863,342.9071,143.6593,216.4937,0,U,69075,999,346,.4567E-4,.123E-5,0
QIANFAN-130,2026-104D,2026-06-05T15:00:43.043616,14.18735119,.0004645,88.9863,342.9360,126.4146,233.7473,0,U,69076,999,344,.52979E-4,.124E-5,0
QIANFAN-131,2026-104E,2026-06-05T17:44:43.715040,14.20505606,.0004176,88.9862,342.9155,141.3731,218.7758,0,U,69077,999,346,.39438E-4,.99E-6,0
