STARLINK-37592          
1 69025U 26101A   26156.66668980 -.02246314  00000+0 -70184-1 0  9995
2 69025  97.2854  11.6257 0001368  58.7623 290.6876 15.36656998  6103
STARLINK-37637          
1 69026U 26101B   26156.48864529  .00044341  00000+0  81169-3 0  9992
2 69026  97.2839  11.4090 0002041  81.9360 278.2123 15.49211776  4778
STARLINK-37548          
1 69027U 26101C   26156.66668980 -.02434993  00000+0 -59732-1 0  9995
2 69027  97.2852  11.6475 0001366  97.6065 307.2573 15.44232233  6071
STARLINK-37634          
1 69028U 26101D   26156.05134624  .00071633  00000+0  13047-2 0  9996
2 69028  97.2847  11.0879 0001683 110.9437 249.1994 15.49234683  4718
STARLINK-37635          
1 69029U 26101E   26156.66668980 -.00017639  00000+0 -54545-3 0  9998
2 69029  97.2850  11.6430 0001968  94.5717 303.8421 15.33435796  6071
STARLINK-37615          
1 69030U 26101F   26156.66668980 -.01861717  00000+0 -51477-1 0  9994
2 69030  97.2840  11.6781 0001657  76.2764  32.0177 15.40297919  6109
STARLINK-37240          
1 69031U 26101G   26156.08289259  .00054551  00000+0  99587-3 0  9992
2 69031  97.2853  11.0429 0001816  75.5460 284.5992 15.49242369  4711
STARLINK-37596          
1 69032U 26101H   26156.11739868  .00058519  00000+0  10680-2 0  9997
2 69032  97.2832  10.9980 0001719  62.7837 297.3589 15.49232306  4711
STARLINK-37591          
1 69033U 26101J   26156.34313448  .00050730  00000+0  92798-3 0  9993
2 69033  97.2831  11.3038 0001725  70.0478 290.0959 15.49202569  4753
STARLINK-37611          
1 69034U 26101K   26156.66668980 -.02475664  00000+0 -68482-1 0  9995
2 69034  97.2855  11.6442 0001609  92.2360 303.9637 15.40725445  6101
STARLINK-37512          
1 69035U 26101L   26156.04240599  .00052449  00000+0  95882-3 0  9994
2 69035  97.2865  10.9436 0001129  55.4443 304.6915 15.49212887  4709
STARLINK-37609          
1 69036U 26101M   26156.04958833  .00074490  00000+0  13563-2 0  9997
2 69036  97.2846  10.9367 0001010 118.2570 241.8783 15.49233806  4709
STARLINK-37608          
1 69037U 26101N   26156.34376057  .00050232  00000+0  91900-3 0  9993
2 69037  97.2813  11.3016 0001574  81.2005 278.9425 15.49200548  4753
STARLINK-37466          
1 69038U 26101P   26156.31175193  .00050105  00000+0  91679-3 0  9991
2 69038  97.2851  11.1914 0001747 109.1165 251.0275 15.49197211  4746
STARLINK-37612          
1 69039U 26101Q   26156.66668980 -.02364222  00000+0 -69232-1 0  9991
2 69039  97.2849  11.6397 0001665  97.6392 276.0507 15.38828093  6100
STARLINK-37616          
1 69040U 26101R   26156.66668980 -.00021682  00000+0 -67146-3 0  9995
2 69040  97.2849  11.6296 0002048  70.0686 298.2400 15.33430400  6101
STARLINK-37614          
1 69041U 26101S   26156.34174392  .00056959  00000+0  10414-2 0  9998
2 69041  97.2820  11.3010 0002582  13.6364 346.4957 15.49187562  4758
STARLINK-37644          
1 69042U 26101T   26156.33999010  .00040495  00000+0  74221-3 0  9995
2 69042  97.2842  11.3030 0000914 108.0868 252.0483 15.49196853  4759
STARLINK-37571          
1 69043U 26101U   26156.33801666  .00044371  00000+0  81253-3 0  9995
2 69043  97.2824  11.3073 0000966  90.2210 269.9152 15.49202433  4759
STARLINK-37664          
1 69044U 26101V   26156.05170091  .00039630  00000+0  72509-3 0  9992
2 69044  97.2827  10.9324 0005693  47.7108 312.4625 15.49235079  4708
STARLINK-37667          
1 69045U 26101W   26156.66668980 -.04968017  00000+0 -15722+0 0  9995
2 69045  97.2845  11.7141 0003221 103.8812  96.8252 15.37581649  6105
STARLINK-37666          
1 69046U 26101X   26156.66668980 -.02411848  00000+0 -66289-1 0  9995
2 69046  97.2849  11.7482 0002095  91.7967 183.6126 15.40814350  6109
STARLINK-37576          
1 69047U 26101Y   26156.66668980 -.02454259  00000+0 -65371-1 0  9990
2 69047  97.2844  11.7600 0001978  95.7078 204.7285 15.41820371  6071
STARLINK-37663          
1 69048U 26101Z   26156.07539561  .00060837  00000+0  11120-2 0  9993
2 69048  97.2866  11.0545 0001424  41.9690 318.1670 15.49180025  4716
TIANZHOU-10             
1 69049U 26102A   26156.07366054  .00026328  00000+0  31558-3 0  9995
2 69049  41.4694  35.6942 0009569 344.8796  15.1755 15.60275999  3939
QIANFAN-127             
1 69073U 26104A   26156.72423308  .00000114  00000+0  45249-4 0  9990
2 69073  88.9863 342.9134 0005327 137.6996 222.4606 14.21690786  3462
QIANFAN-128             
1 69074U 26104B   26156.70914723  .00000112  00000+0  47494-4 0  9997
2 69074  88.9864 342.9302 0004609 135.2599 224.8962 14.18045842  3459
QIANFAN-129             
1 69075U 26104C   26156.68313328  .00000123  00000+0  45670-4 0  9995
2 69075  88.9863 342.9071 0004953 143.6593 216.4937 14.25500361  3461
QIANFAN-130             
1 69076U 26104D   26156.62549819  .00000124  00000+0  52979-4 0  9997
2 69076  88.9863 342.9360 0004645 126.4146 233.7473 14.18735119  3442
QIANFAN-131             
1 69077U 26104E   26156.73939485  .00000099  00000+0  39438-4 0  9998
2 69077  88.9862 342.9155 0004176 141.3731 218.7758 14.20505606  3469
